MICROORBITER-1          
1 59483U 98067WF  24112.74264823  .00132315  00000+0  20628-2 0  9999
2 59483  51.6370 235.1816 0002480  91.9904 268.1370 15.52897505  1673
STARLINK-31753          
1 59484U 24071A   24113.16667824 -.00865397  00000+0 -39440-2 0  9996
2 59484  43.0020 307.4508 0002030 277.5732 210.9077 15.84928417  2597
STARLINK-31653          
1 59485U 24071B   24112.91667824 -.00813727  00000+0 -36069-2 0  9993
2 59485  43.0020 308.9889 0001927 284.0355 217.4639 15.85376399  2553
STARLINK-31733          
1 59486U 24071C   24113.16667824 -.00872790  00000+0 -39656-2 0  9992
2 59486  43.0020 307.4425 0001988 275.5487 216.0538 15.85009092  2592
STARLINK-31657          
1 59487U 24071D   24113.16667824 -.00892904  00000+0 -40410-2 0  9992
2 59487  43.0017 307.4263 0002020 277.4555 220.7000 15.85137862  2643
STARLINK-31754          
1 59488U 24071E   24112.91667824 -.00826127  00000+0 -36506-2 0  9990
2 59488  43.0019 308.9783 0001838 286.0508 219.6408 15.85469570  2608
STARLINK-31638          
1 59489U 24071F   24113.16667824 -.00889275  00000+0 -40307-2 0  9996
2 59489  43.0018 307.4308 0002069 275.5660 220.8089 15.85097490  2599
STARLINK-31670          
1 59490U 24071G   24113.16667824 -.01076874  00000+0 -49787-2 0  9993
2 59490  43.0015 307.3709 0002107 276.5655 243.3162 15.85148297  2594
STARLINK-31712          
1 59491U 24071H   24112.91667824 -.00843158  00000+0 -37085-2 0  9990
2 59491  43.0018 308.9639 0001888 286.8964 224.4333 15.85604651  2602
STARLINK-31684          
1 59492U 24071J   24113.16667824 -.00911202  00000+0 -41073-2 0  9997
2 59492  43.0017 307.4110 0002001 277.3205 226.8636 15.85264063  2590
STARLINK-31678          
1 59493U 24071K   24112.91667824 -.00864908  00000+0 -37875-2 0  9995
2 59493  43.0018 308.9474 0001917 283.9176 233.8138 15.85745240  2604
STARLINK-31744          
1 59494U 24071L   24113.16667824 -.00921379  00000+0 -41419-2 0  9999
2 59494  43.0015 307.4011 0001783 275.3711 232.5985 15.85346369  2597
STARLINK-31719          
1 59495U 24071M   24112.91667824 -.00877205  00000+0 -38298-2 0  9991
2 59495  43.0016 308.9379 0001957 282.4889 239.0310 15.85835190  2601
STARLINK-31728          
1 59496U 24071N   24113.16667824 -.00941888  00000+0 -42174-2 0  9997
2 59496  43.0014 307.3853 0002075 275.5617 238.5616 15.85473131  2598
STARLINK-31720          
1 59497U 24071P   24113.16667824 -.00933624  00000+0 -41853-2 0  9990
2 59497  43.0013 307.3910 0002008 275.7984 236.1155 15.85430112  2591
STARLINK-31731          
1 59498U 24071Q   24113.16667824 -.00812231  00000+0 -36005-2 0  9994
2 59498  43.0013 307.3787 0002789 260.9217 255.8786 15.85362486  2647
STARLINK-31742          
1 59499U 24071R   24113.16667824 -.00947713  00000+0 -42309-2 0  9993
2 59499  43.0010 307.3735 0001878 249.5516 269.1973 15.85549854  2597
STARLINK-31512          
1 59500U 24071S   24112.91667824 -.00906489  00000+0 -39279-2 0  9995
2 59500  43.0013 308.9122 0001743 286.8419 244.7600 15.86060008  2605
STARLINK-31458          
1 59501U 24071T   24113.16667824 -.00968281  00000+0 -43139-2 0  9992
2 59501  43.0011 307.3641 0001961 269.6384 252.7965 15.85640059  2595
STARLINK-31357          
1 59502U 24071U   24112.91667824 -.00918528  00000+0 -39681-2 0  9991
2 59502  43.0013 308.9019 0001763 284.4024 251.1925 15.86149362  2603
STARLINK-31508          
1 59503U 24071V   24113.16667824 -.00981298  00000+0 -43612-2 0  9993
2 59503  43.0013 307.3538 0001914 274.4192 252.3532 15.85721810  2594
STARLINK-31535          
1 59504U 24071W   24113.16667824 -.00988707  00000+0 -43894-2 0  9998
2 59504  43.0010 307.3475 0001827 278.6203 250.5342 15.85762555  2594
STARLINK-31533          
1 59505U 24071X   24113.16667824 -.00977311  00000+0 -43447-2 0  9992
2 59505  43.0010 307.3426 0002029 274.2820 256.8583 15.85705178  2597
STARLINK-31524          
1 59506U 24071Y   24112.91667824 -.00947208  00000+0 -40691-2 0  9995
2 59506  43.0014 308.8812 0001729 287.6095 256.3929 15.86331364  2553
CURTIS                  
1 59507U 98067WG  24112.74284675  .00104785  00000+0  16570-2 0  9994
2 59507  51.6370 235.1815 0001884 111.4485 248.6706 15.52626807  1680
KASHIWA                 
1 59508U 98067WH  24112.42076090  .00114325  00000+0  17924-2 0  9995
2 59508  51.6366 236.7829 0002478  94.1103 266.0170 15.52820080  1635
2024-069D               
1 59509U 24069D   24109.37283718  .05373416  10814-4  51767-2 0  9999
2 59509  51.4865 338.0912 0222076 105.5926 257.0155 15.77124220   907
2024-072A               
1 59510U 24072A   24113.18091802  .00033565  00000+0  13962-2 0  9999
2 59510  97.4867 188.3227 0011382 241.3045 118.7048 15.23638913  1065
2024-075A               
1 59557U 24075A   24112.31330473 -.00000037  00000+0  00000+0 0  9992
2 59557  34.9949 178.3066 0007934 267.6722 172.1666 15.23168233    44
2024-075B               
1 59558U 24075B   24112.64435656 -.00000056  00000+0  00000+0 0  9999
2 59558  35.0868 176.3675 0076580   5.2796 121.0224 15.35337489   105
